[
  {
    "OBJECT_NAME": "STARLINK-3059",
    "OBJECT_ID": "21082BD",
    "EPOCH": "2025-11-11T05:39:39.892032",
    "MEAN_MOTION": 14.98313524,
    "ECCENTRICITY": 0.0002549,
    "INCLINATION": 70.0007,
    "RA_OF_ASC_NODE": 233.1172,
    "ARG_OF_PERICENTER": 272.2836,
    "MEAN_ANOMALY": 87.8032,
    "EPHEMERIS_TYPE": 0,
    "CLASSIFICATION_TYPE": "U",
    "NORAD_CAT_ID": 49181,
    "ELEMENT_SET_NO": 999,
    "REV_AT_EPOCH": 22942,
    "BSTAR": 0.00047744,
    "MEAN_MOTION_DOT": 5.606e-05,
    "MEAN_MOTION_DDOT": 0.0,
    "TLE_LINE1": "1 49181U 21082BD  25315.23587838  .00005606  00000+0  47744-3 0  9991",
    "TLE_LINE2": "2 49181  70.0007 233.1172 0002549 272.2836  87.8032 14.98313524229425",
    "COMMENT": "Grouped by shell and plane from TLE"
  },
  {
    "OBJECT_NAME": "STARLINK-3856",
    "OBJECT_ID": "22049J",
    "EPOCH": "2025-11-11T04:08:28.039200",
    "MEAN_MOTION": 15.08864418,
    "ECCENTRICITY": 0.0001631,
    "INCLINATION": 53.2177,
    "RA_OF_ASC_NODE": 231.1625,
    "ARG_OF_PERICENTER": 78.7786,
    "MEAN_ANOMALY": 281.339,
    "EPHEMERIS_TYPE": 0,
    "CLASSIFICATION_TYPE": "U",
    "NORAD_CAT_ID": 52459,
    "ELEMENT_SET_NO": 999,
    "REV_AT_EPOCH": 19435,
    "BSTAR": 7.4242e-05,
    "MEAN_MOTION_DOT": 8.94e-06,
    "MEAN_MOTION_DDOT": 0.0,
    "TLE_LINE1": "1 52459U 22049J   25315.17254675  .00000894  00000+0  74242-4 0  9998",
    "TLE_LINE2": "2 52459  53.2177 231.1625 0001631  78.7786 281.3390 15.08864418194359",
    "COMMENT": "Grouped by shell and plane from TLE"
  },
  {
    "OBJECT_NAME": "STARLINK-3903",
    "OBJECT_ID": "22049M",
    "EPOCH": "2025-11-11T03:59:17.720448",
    "MEAN_MOTION": 15.08820157,
    "ECCENTRICITY": 0.0001193,
    "INCLINATION": 53.2159,
    "RA_OF_ASC_NODE": 231.2058,
    "ARG_OF_PERICENTER": 96.1669,
    "MEAN_ANOMALY": 263.9459,
    "EPHEMERIS_TYPE": 0,
    "CLASSIFICATION_TYPE": "U",
    "NORAD_CAT_ID": 52462,
    "ELEMENT_SET_NO": 999,
    "REV_AT_EPOCH": 19435,
    "BSTAR": 5.0127e-05,
    "MEAN_MOTION_DOT": 5.1e-06,
    "MEAN_MOTION_DDOT": 0.0,
    "TLE_LINE1": "1 52462U 22049M   25315.16617732  .00000510  00000+0  50127-4 0  9999",
    "TLE_LINE2": "2 52462  53.2159 231.2058 0001193  96.1669 263.9459 15.08820157194355",
    "COMMENT": "Grouped by shell and plane from TLE"
  },
  {
    "OBJECT_NAME": "STARLINK-3904",
    "OBJECT_ID": "22049P",
    "EPOCH": "2025-11-11T04:03:12.506400",
    "MEAN_MOTION": 15.08847207,
    "ECCENTRICITY": 0.0001344,
    "INCLINATION": 53.2155,
    "RA_OF_ASC_NODE": 231.1794,
    "ARG_OF_PERICENTER": 82.1842,
    "MEAN_ANOMALY": 277.9303,
    "EPHEMERIS_TYPE": 0,
    "CLASSIFICATION_TYPE": "U",
    "NORAD_CAT_ID": 52464,
    "ELEMENT_SET_NO": 999,
    "REV_AT_EPOCH": 19435,
    "BSTAR": 0.00092358,
    "MEAN_MOTION_DOT": 0.00014444,
    "MEAN_MOTION_DDOT": 0.0,
    "TLE_LINE1": "1 52464U 22049P   25315.16889475  .00014444  00000+0  92358-3 0  9998",
    "TLE_LINE2": "2 52464  53.2155 231.1794 0001344  82.1842 277.9303 15.08847207194353",
    "COMMENT": "Grouped by shell and plane from TLE"
  },
  {
    "OBJECT_NAME": "STARLINK-3873",
    "OBJECT_ID": "22049S",
    "EPOCH": "2025-11-11T03:52:34.318848",
    "MEAN_MOTION": 15.08849861,
    "ECCENTRICITY": 0.000132,
    "INCLINATION": 53.2171,
    "RA_OF_ASC_NODE": 231.2135,
    "ARG_OF_PERICENTER": 90.9324,
    "MEAN_ANOMALY": 269.182,
    "EPHEMERIS_TYPE": 0,
    "CLASSIFICATION_TYPE": "U",
    "NORAD_CAT_ID": 52467,
    "ELEMENT_SET_NO": 999,
    "REV_AT_EPOCH": 19435,
    "BSTAR": 0.00025006000000000003,
    "MEAN_MOTION_DOT": 3.695e-05,
    "MEAN_MOTION_DDOT": 0.0,
    "TLE_LINE1": "1 52467U 22049S   25315.16150832  .00003695  00000+0  25006-3 0  9991",
    "TLE_LINE2": "2 52467  53.2171 231.2135 0001320  90.9324 269.1820 15.08849861194355",
    "COMMENT": "Grouped by shell and plane from TLE"
  },
  {
    "OBJECT_NAME": "STARLINK-3864",
    "OBJECT_ID": "22049T",
    "EPOCH": "2025-11-11T03:31:23.221056",
    "MEAN_MOTION": 15.08861258,
    "ECCENTRICITY": 0.0001357,
    "INCLINATION": 53.2142,
    "RA_OF_ASC_NODE": 231.2806,
    "ARG_OF_PERICENTER": 88.0864,
    "MEAN_ANOMALY": 272.0283,
    "EPHEMERIS_TYPE": 0,
    "CLASSIFICATION_TYPE": "U",
    "NORAD_CAT_ID": 52468,
    "ELEMENT_SET_NO": 999,
    "REV_AT_EPOCH": 19435,
    "BSTAR": 0.00015192,
    "MEAN_MOTION_DOT": 2.132e-05,
    "MEAN_MOTION_DDOT": 0.0,
    "TLE_LINE1": "1 52468U 22049T   25315.14679654  .00002132  00000+0  15192-3 0  9998",
    "TLE_LINE2": "2 52468  53.2142 231.2806 0001357  88.0864 272.0283 15.08861258194356",
    "COMMENT": "Grouped by shell and plane from TLE"
  },
  {
    "OBJECT_NAME": "STARLINK-3828",
    "OBJECT_ID": "22049U",
    "EPOCH": "2025-11-11T02:06:36.288000",
    "MEAN_MOTION": 15.08856388,
    "ECCENTRICITY": 0.0001008,
    "INCLINATION": 53.2168,
    "RA_OF_ASC_NODE": 231.5465,
    "ARG_OF_PERICENTER": 82.7763,
    "MEAN_ANOMALY": 277.3344,
    "EPHEMERIS_TYPE": 0,
    "CLASSIFICATION_TYPE": "U",
    "NORAD_CAT_ID": 52469,
    "ELEMENT_SET_NO": 999,
    "REV_AT_EPOCH": 19434,
    "BSTAR": 9.0862e-05,
    "MEAN_MOTION_DOT": 1.159e-05,
    "MEAN_MOTION_DDOT": 0.0,
    "TLE_LINE1": "1 52469U 22049U   25315.08792000  .00001159  00000+0  90862-4 0  9999",
    "TLE_LINE2": "2 52469  53.2168 231.5465 0001008  82.7763 277.3344 15.08856388194344",
    "COMMENT": "Grouped by shell and plane from TLE"
  },
  {
    "OBJECT_NAME": "STARLINK-3859",
    "OBJECT_ID": "22049V",
    "EPOCH": "2025-11-11T04:56:09.589920",
    "MEAN_MOTION": 15.08857214,
    "ECCENTRICITY": 0.0001582,
    "INCLINATION": 53.2169,
    "RA_OF_ASC_NODE": 231.0163,
    "ARG_OF_PERICENTER": 96.5167,
    "MEAN_ANOMALY": 263.6005,
    "EPHEMERIS_TYPE": 0,
    "CLASSIFICATION_TYPE": "U",
    "NORAD_CAT_ID": 52470,
    "ELEMENT_SET_NO": 999,
    "REV_AT_EPOCH": 19436,
    "BSTAR": 0.00013675000000000002,
    "MEAN_MOTION_DOT": 1.89e-05,
    "MEAN_MOTION_DDOT": 0.0,
    "TLE_LINE1": "1 52470U 22049V   25315.20566655  .00001890  00000+0  13675-3 0  9998",
    "TLE_LINE2": "2 52470  53.2169 231.0163 0001582  96.5167 263.6005 15.08857214194368",
    "COMMENT": "Grouped by shell and plane from TLE"
  },
  {
    "OBJECT_NAME": "STARLINK-3862",
    "OBJECT_ID": "22049W",
    "EPOCH": "2025-11-11T03:38:03.618528",
    "MEAN_MOTION": 15.08845443,
    "ECCENTRICITY": 0.0001459,
    "INCLINATION": 53.2172,
    "RA_OF_ASC_NODE": 231.2702,
    "ARG_OF_PERICENTER": 89.9176,
    "MEAN_ANOMALY": 270.1984,
    "EPHEMERIS_TYPE": 0,
    "CLASSIFICATION_TYPE": "U",
    "NORAD_CAT_ID": 52471,
    "ELEMENT_SET_NO": 999,
    "REV_AT_EPOCH": 19435,
    "BSTAR": 0.00016827,
    "MEAN_MOTION_DOT": 2.391e-05,
    "MEAN_MOTION_DDOT": 0.0,
    "TLE_LINE1": "1 52471U 22049W   25315.15143077  .00002391  00000+0  16827-3 0  9991",
    "TLE_LINE2": "2 52471  53.2172 231.2702 0001459  89.9176 270.1984 15.08845443194352",
    "COMMENT": "Grouped by shell and plane from TLE"
  },
  {
    "OBJECT_NAME": "STARLINK-3881",
    "OBJECT_ID": "22049X",
    "EPOCH": "2025-11-11T01:40:06.107232",
    "MEAN_MOTION": 15.08848311,
    "ECCENTRICITY": 0.0001432,
    "INCLINATION": 53.2162,
    "RA_OF_ASC_NODE": 231.6296,
    "ARG_OF_PERICENTER": 92.4414,
    "MEAN_ANOMALY": 267.6742,
    "EPHEMERIS_TYPE": 0,
    "CLASSIFICATION_TYPE": "U",
    "NORAD_CAT_ID": 52472,
    "ELEMENT_SET_NO": 999,
    "REV_AT_EPOCH": 19434,
    "BSTAR": 0.00023148,
    "MEAN_MOTION_DOT": 3.399e-05,
    "MEAN_MOTION_DDOT": 0.0,
    "TLE_LINE1": "1 52472U 22049X   25315.06951513  .00003399  00000+0  23148-3 0  9997",
    "TLE_LINE2": "2 52472  53.2162 231.6296 0001432  92.4414 267.6742 15.08848311194348",
    "COMMENT": "Grouped by shell and plane from TLE"
  },
  {
    "OBJECT_NAME": "STARLINK-3879",
    "OBJECT_ID": "22049Y",
    "EPOCH": "2025-11-11T05:01:27.941952",
    "MEAN_MOTION": 15.08846483,
    "ECCENTRICITY": 0.0001324,
    "INCLINATION": 53.2167,
    "RA_OF_ASC_NODE": 231.0007,
    "ARG_OF_PERICENTER": 81.7103,
    "MEAN_ANOMALY": 278.404,
    "EPHEMERIS_TYPE": 0,
    "CLASSIFICATION_TYPE": "U",
    "NORAD_CAT_ID": 52473,
    "ELEMENT_SET_NO": 999,
    "REV_AT_EPOCH": 19436,
    "BSTAR": 0.00016399,
    "MEAN_MOTION_DOT": 2.323e-05,
    "MEAN_MOTION_DDOT": 0.0,
    "TLE_LINE1": "1 52473U 22049Y   25315.20935118  .00002323  00000+0  16399-3 0  9993",
    "TLE_LINE2": "2 52473  53.2167 231.0007 0001324  81.7103 278.4040 15.08846483194365",
    "COMMENT": "Grouped by shell and plane from TLE"
  },
  {
    "OBJECT_NAME": "STARLINK-3882",
    "OBJECT_ID": "22049AA",
    "EPOCH": "2025-11-11T05:22:42.758400",
    "MEAN_MOTION": 15.08842329,
    "ECCENTRICITY": 0.0001451,
    "INCLINATION": 53.218,
    "RA_OF_ASC_NODE": 231.1532,
    "ARG_OF_PERICENTER": 81.3925,
    "MEAN_ANOMALY": 278.7232,
    "EPHEMERIS_TYPE": 0,
    "CLASSIFICATION_TYPE": "U",
    "NORAD_CAT_ID": 52475,
    "ELEMENT_SET_NO": 999,
    "REV_AT_EPOCH": 19436,
    "BSTAR": 0.00013711000000000002,
    "MEAN_MOTION_DOT": 1.895e-05,
    "MEAN_MOTION_DDOT": 0.0,
    "TLE_LINE1": "1 52475U 22049AA  25315.22410600  .00001895  00000+0  13711-3 0  9999",
    "TLE_LINE2": "2 52475  53.2180 231.1532 0001451  81.3925 278.7232 15.08842329194366",
    "COMMENT": "Grouped by shell and plane from TLE"
  },
  {
    "OBJECT_NAME": "STARLINK-3825",
    "OBJECT_ID": "22049AD",
    "EPOCH": "2025-11-11T01:29:30.547104",
    "MEAN_MOTION": 15.08838666,
    "ECCENTRICITY": 0.000133,
    "INCLINATION": 53.2165,
    "RA_OF_ASC_NODE": 231.6626,
    "ARG_OF_PERICENTER": 82.2589,
    "MEAN_ANOMALY": 277.8554,
    "EPHEMERIS_TYPE": 0,
    "CLASSIFICATION_TYPE": "U",
    "NORAD_CAT_ID": 52478,
    "ELEMENT_SET_NO": 999,
    "REV_AT_EPOCH": 19558,
    "BSTAR": 0.00015010999999999998,
    "MEAN_MOTION_DOT": 2.102e-05,
    "MEAN_MOTION_DDOT": 0.0,
    "TLE_LINE1": "1 52478U 22049AD  25315.06215911  .00002102  00000+0  15011-3 0  9999",
    "TLE_LINE2": "2 52478  53.2165 231.6626 0001330  82.2589 277.8554 15.08838666195584",
    "COMMENT": "Grouped by shell and plane from TLE"
  }
]